{
  "norad_id": 64600,
  "name": "STARLINK-34504",
  "history": [
    {
      "epoch": "2026-03-28T17:21:01.762848Z",
      "apogee_km": 476.01440226371415,
      "perigee_km": 474.44292551698345,
      "latitude_deg": 2.071150738332511e-06,
      "longitude_deg": 160.8116611945557,
      "height_km": 475.58078307264833,
      "semi_major_axis_km": 6853.3656638903485,
      "eccentricity": 0.00011465,
      "inclination_deg": 53.1577,
      "raan_deg": 247.2083,
      "arg_perigee_deg": 45.9498,
      "mean_anomaly_deg": 314.1597,
      "mean_motion_rev_day": 15.30195447
    }
  ]
}