{"fetched_at":"2026-03-29T16:36:15Z","count":15609,"tles":[{"name":"STARLINK-34504","line1":"1 64600U 25137G   26087.72293707  .00030263  00000+0  10299-2 0  9990","line2":"2 64600  53.1577 247.2083 0001146  45.9498 314.1597 15.30195447 43649","category":"Starlink"}]}